[{"OBJECT_NAME":"ONEWEB-0464","OBJECT_ID":"2022-012AF","EPOCH":"2026-04-22T05:10:26.484384","MEAN_MOTION":13.10369267,"ECCENTRICITY":0.000217,"INCLINATION":87.8841,"RA_OF_ASC_NODE":47.4182,"ARG_OF_PERICENTER":80.7933,"MEAN_ANOMALY":279.344,"EPHEMERIS_TYPE":0,"CLASSIFICATION_TYPE":"U","NORAD_CAT_ID":51651,"ELEMENT_SET_NO":999,"REV_AT_EPOCH":20199,"BSTAR":-0.00066736,"MEAN_MOTION_DOT":-2.2e-06,"MEAN_MOTION_DDOT":0.0},{"OBJECT_NAME":"ONEWEB-0468","OBJECT_ID":"2022-012AG","EPOCH":"2026-04-22T07:09:53.766144","MEAN_MOTION":13.10397208,"ECCENTRICITY":0.000216,"INCLINATION":87.8856,"RA_OF_ASC_NODE":47.3942,"ARG_OF_PERICENTER":81.9333,"MEAN_ANOMALY":278.204,"EPHEMERIS_TYPE":0,"CLASSIFICATION_TYPE":"U","NORAD_CAT_ID":51652,"ELEMENT_SET_NO":999,"REV_AT_EPOCH":20198,"BSTAR":0.0068643,"MEAN_MOTION_DOT":2.41e-05,"MEAN_MOTION_DDOT":0.0},{"OBJECT_NAME":"ONEWEB-0473","OBJECT_ID":"2022-012AH","EPOCH":"2026-04-22T04:58:29.803296","MEAN_MOTION":13.10369253,"ECCENTRICITY":0.0002019,"INCLINATION":87.8842,"RA_OF_ASC_NODE":47.4157,"ARG_OF_PERICENTER":82.3969,"MEAN_ANOMALY":277.7388,"EPHEMERIS_TYPE":0,"CLASSIFICATION_TYPE":"U","NORAD_CAT_ID":51653,"ELEMENT_SET_NO":999,"REV_AT_EPOCH":20197,"BSTAR":0.00045975,"MEAN_MOTION_DOT":1.73e-06,"MEAN_MOTION_DDOT":0.0},{"OBJECT_NAME":"ONEWEB-0474","OBJECT_ID":"2022-012AJ","EPOCH":"2026-04-22T01:06:39.160512","MEAN_MOTION":13.10370719,"ECCENTRICITY":0.000224,"INCLINATION":87.8849,"RA_OF_ASC_NODE":47.4265,"ARG_OF_PERICENTER":81.9829,"MEAN_ANOMALY":278.1552,"EPHEMERIS_TYPE":0,"CLASSIFICATION_TYPE":"U","NORAD_CAT_ID":51654,"ELEMENT_SET_NO":999,"REV_AT_EPOCH":20194,"BSTAR":0.0015414,"MEAN_MOTION_DOT":5.51e-06,"MEAN_MOTION_DDOT":0.0},{"OBJECT_NAME":"ONEWEB-0475","OBJECT_ID":"2022-012AK","EPOCH":"2026-04-22T06:10:37.974144","MEAN_MOTION":13.17651144,"ECCENTRICITY":0.0002431,"INCLINATION":87.9181,"RA_OF_ASC_NODE":16.9844,"ARG_OF_PERICENTER":87.5591,"MEAN_ANOMALY":272.5819,"EPHEMERIS_TYPE":0,"CLASSIFICATION_TYPE":"U","NORAD_CAT_ID":51655,"ELEMENT_SET_NO":999,"REV_AT_EPOCH":20632,"BSTAR":-0.00031485000000000004,"MEAN_MOTION_DOT":-1.09e-06,"MEAN_MOTION_DDOT":0.0},{"OBJECT_NAME":"ONEWEB-0490","OBJECT_ID":"2022-138A","EPOCH":"2026-04-22T00:43:25.139712","MEAN_MOTION":13.19723946,"ECCENTRICITY":0.0001936,"INCLINATION":87.9163,"RA_OF_ASC_NODE":316.1636,"ARG_OF_PERICENTER":83.4126,"MEAN_ANOMALY":276.7227,"EPHEMERIS_TYPE":0,"CLASSIFICATION_TYPE":"U","NORAD_CAT_ID":54113,"ELEMENT_SET_NO":999,"REV_AT_EPOCH":16942,"BSTAR":6.7303e-05,"MEAN_MOTION_DOT":4e-07,"MEAN_MOTION_DDOT":0.0},{"OBJECT_NAME":"ONEWEB-0492","OBJECT_ID":"2022-138B","EPOCH":"2026-04-21T23:30:38.163168","MEAN_MOTION":13.19724645,"ECCENTRICITY":0.0001823,"INCLINATION":87.9159,"RA_OF_ASC_NODE":316.1792,"ARG_OF_PERICENTER":80.2199,"MEAN_ANOMALY":279.914,"EPHEMERIS_TYPE":0,"CLASSIFICATION_TYPE":"U","NORAD_CAT_ID":54114,"ELEMENT_SET_NO":999,"REV_AT_EPOCH":16942,"BSTAR":7.2391e-05,"MEAN_MOTION_DOT":4.2e-07,"MEAN_MOTION_DDOT":0.0},{"OBJECT_NAME":"ONEWEB-0495","OBJECT_ID":"2022-138C","EPOCH":"2026-04-22T00:47:58.228512","MEAN_MOTION":13.19724057,"ECCENTRICITY":0.000236,"INCLINATION":87.916,"RA_OF_ASC_NODE":316.1705,"ARG_OF_PERICENTER":77.5078,"MEAN_ANOMALY":282.6319,"EPHEMERIS_TYPE":0,"CLASSIFICATION_TYPE":"U","NORAD_CAT_ID":54115,"ELEMENT_SET_NO":999,"REV_AT_EPOCH":16941,"BSTAR":-9.534e-05,"MEAN_MOTION_DOT":-2.5e-07,"MEAN_MOTION_DDOT":0.0},{"OBJECT_NAME":"ONEWEB-0497","OBJECT_ID":"2022-138D","EPOCH":"2026-04-21T23:16:59.193120","MEAN_MOTION":13.19723604,"ECCENTRICITY":0.0001862,"INCLINATION":87.9157,"RA_OF_ASC_NODE":316.1733,"ARG_OF_PERICENTER":85.1193,"MEAN_ANOMALY":275.0152,"EPHEMERIS_TYPE":0,"CLASSIFICATION_TYPE":"U","NORAD_CAT_ID":54116,"ELEMENT_SET_NO":999,"REV_AT_EPOCH":16939,"BSTAR":-9.129000000000002e-05,"MEAN_MOTION_DOT":-2.4e-07,"MEAN_MOTION_DDOT":0.0},{"OBJECT_NAME":"ONEWEB-0499","OBJECT_ID":"2022-138E","EPOCH":"2026-04-22T00:42:17.953344","MEAN_MOTION":13.19724574,"ECCENTRICITY":0.0001959,"INCLINATION":87.9157,"RA_OF_ASC_NODE":316.1728,"ARG_OF_PERICENTER":89.5508,"MEAN_ANOMALY":270.5849,"EPHEMERIS_TYPE":0,"CLASSIFICATION_TYPE":"U","NORAD_CAT_ID":54117,"ELEMENT_SET_NO":999,"REV_AT_EPOCH":16941,"BSTAR":-0.0001207,"MEAN_MOTION_DOT":-3.5e-07,"MEAN_MOTION_DDOT":0.0},{"OBJECT_NAME":"ONEWEB-0500","OBJECT_ID":"2022-138F","EPOCH":"2026-04-21T19:18:10.018368","MEAN_MOTION":13.19723515,"ECCENTRICITY":0.0001709,"INCLINATION":87.9165,"RA_OF_ASC_NODE":316.2076,"ARG_OF_PERICENTER":85.5911,"MEAN_ANOMALY":274.5417,"EPHEMERIS_TYPE":0,"CLASSIFICATION_TYPE":"U","NORAD_CAT_ID":54118,"ELEMENT_SET_NO":999,"REV_AT_EPOCH":16939,"BSTAR":2.0984e-05,"MEAN_MOTION_DOT":2.1e-07,"MEAN_MOTION_DDOT":0.0},{"OBJECT_NAME":"ONEWEB-0501","OBJECT_ID":"2022-138G","EPOCH":"2026-04-21T07:17:08.501568","MEAN_MOTION":13.19723119,"ECCENTRICITY":0.0002093,"INCLINATION":87.9162,"RA_OF_ASC_NODE":316.3074,"ARG_OF_PERICENTER":83.197,"MEAN_ANOMALY":276.9401,"EPHEMERIS_TYPE":0,"CLASSIFICATION_TYPE":"U","NORAD_CAT_ID":54119,"ELEMENT_SET_NO":999,"REV_AT_EPOCH":16930,"BSTAR":-0.00011633,"MEAN_MOTION_DOT":-3.4e-07,"MEAN_MOTION_DDOT":0.0},{"OBJECT_NAME":"ONEWEB-0502","OBJECT_ID":"2022-138H","EPOCH":"2026-04-21T06:56:40.233984","MEAN_MOTION":13.19724472,"ECCENTRICITY":0.0002077,"INCLINATION":87.9174,"RA_OF_ASC_NODE":316.2983,"ARG_OF_PERICENTER":87.4493,"MEAN_ANOMALY":272.6878,"EPHEMERIS_TYPE":0,"CLASSIFICATION_TYPE":"U","NORAD_CAT_ID":54120,"ELEMENT_SET_NO":999,"REV_AT_EPOCH":16932,"BSTAR":0.00022619,"MEAN_MOTION_DOT":1.04e-06,"MEAN_MOTION_DDOT":0.0},{"OBJECT_NAME":"ONEWEB-0503","OBJECT_ID":"2022-138J","EPOCH":"2026-04-22T00:52:30.979488","MEAN_MOTION":13.19724222,"ECCENTRICITY":0.0001856,"INCLINATION":87.9174,"RA_OF_ASC_NODE":316.1539,"ARG_OF_PERICENTER":95.3058,"MEAN_ANOMALY":264.8286,"EPHEMERIS_TYPE":0,"CLASSIFICATION_TYPE":"U","NORAD_CAT_ID":54121,"ELEMENT_SET_NO":999,"REV_AT_EPOCH":16941,"BSTAR":-8.4097e-05,"MEAN_MOTION_DOT":-2.1e-07,"MEAN_MOTION_DDOT":0.0},{"OBJECT_NAME":"ONEWEB-0504","OBJECT_ID":"2022-138K","EPOCH":"2026-04-21T22:45:08.879616","MEAN_MOTION":13.19723504,"ECCENTRICITY":0.0002056,"INCLINATION":87.9159,"RA_OF_ASC_NODE":316.178,"ARG_OF_PERICENTER":87.8051,"MEAN_ANOMALY":272.3317,"EPHEMERIS_TYPE":0,"CLASSIFICATION_TYPE":"U","NORAD_CAT_ID":54122,"ELEMENT_SET_NO":999,"REV_AT_EPOCH":16941,"BSTAR":6.7402e-05,"MEAN_MOTION_DOT":4e-07,"MEAN_MOTION_DDOT":0.0},{"OBJECT_NAME":"ONEWEB-0505","OBJECT_ID":"2022-138L","EPOCH":"2026-04-22T00:29:45.840480","MEAN_MOTION":13.19725546,"ECCENTRICITY":0.0002465,"INCLINATION":87.918,"RA_OF_ASC_NODE":316.1618,"ARG_OF_PERICENTER":92.4866,"MEAN_ANOMALY":267.6549,"EPHEMERIS_TYPE":0,"CLASSIFICATION_TYPE":"U","NORAD_CAT_ID":54123,"ELEMENT_SET_NO":999,"REV_AT_EPOCH":16940,"BSTAR":0.00025948,"MEAN_MOTION_DOT":1.17e-06,"MEAN_MOTION_DDOT":0.0}]