ONEWEB-0464             
1 51651U 22012AF  26112.21558431 -.00000220  00000+0 -66736-3 0  9992
2 51651  87.8841  47.4182 0002170  80.7933 279.3440 13.10369267201990
ONEWEB-0468             
1 51652U 22012AG  26112.29853896  .00002410  00000+0  68643-2 0  9993
2 51652  87.8856  47.3942 0002160  81.9333 278.2040 13.10397208201985
ONEWEB-0473             
1 51653U 22012AH  26112.20728939  .00000173  00000+0  45975-3 0  9992
2 51653  87.8842  47.4157 0002019  82.3969 277.7388 13.10369253201970
ONEWEB-0474             
1 51654U 22012AJ  26112.04628658  .00000551  00000+0  15414-2 0  9996
2 51654  87.8849  47.4265 0002240  81.9829 278.1552 13.10370719201948
ONEWEB-0475             
1 51655U 22012AK  26112.25738396 -.00000109  00000+0 -31485-3 0  9999
2 51655  87.9181  16.9844 0002431  87.5591 272.5819 13.17651144206325
ONEWEB-0490             
1 54113U 22138A   26112.03015208  .00000040  00000+0  67303-4 0  9997
2 54113  87.9163 316.1636 0001936  83.4126 276.7227 13.19723946169429
ONEWEB-0492             
1 54114U 22138B   26111.97960837  .00000042  00000+0  72391-4 0  9992
2 54114  87.9159 316.1792 0001823  80.2199 279.9140 13.19724645169424
ONEWEB-0495             
1 54115U 22138C   26112.03331283 -.00000025  00000+0 -95340-4 0  9990
2 54115  87.9160 316.1705 0002360  77.5078 282.6319 13.19724057169418
ONEWEB-0497             
1 54116U 22138D   26111.97012955 -.00000024  00000+0 -91290-4 0  9994
2 54116  87.9157 316.1733 0001862  85.1193 275.0152 13.19723604169390
ONEWEB-0499             
1 54117U 22138E   26112.02937446 -.00000035  00000+0 -12070-3 0  9993
2 54117  87.9157 316.1728 0001959  89.5508 270.5849 13.19724574169413
ONEWEB-0500             
1 54118U 22138F   26111.80428262  .00000021  00000+0  20984-4 0  9997
2 54118  87.9165 316.2076 0001709  85.5911 274.5417 13.19723515169393
ONEWEB-0501             
1 54119U 22138G   26111.30357062 -.00000034  00000+0 -11633-3 0  9998
2 54119  87.9162 316.3074 0002093  83.1970 276.9401 13.19723119169306
ONEWEB-0502             
1 54120U 22138H   26111.28935456  .00000104  00000+0  22619-3 0  9998
2 54120  87.9174 316.2983 0002077  87.4493 272.6878 13.19724472169324
ONEWEB-0503             
1 54121U 22138J   26112.03646967 -.00000021  00000+0 -84097-4 0  9998
2 54121  87.9174 316.1539 0001856  95.3058 264.8286 13.19724222169419
ONEWEB-0504             
1 54122U 22138K   26111.94801944  .00000040  00000+0  67402-4 0  9996
2 54122  87.9159 316.1780 0002056  87.8051 272.3317 13.19723504169414
ONEWEB-0505             
1 54123U 22138L   26112.02066945  .00000117  00000+0  25948-3 0  9994
2 54123  87.9180 316.1618 0002465  92.4866 267.6549 13.19725546169400
